[{"OBJECT_NAME":"HXMT (HUIYAN)","OBJECT_ID":"2017-034A","EPOCH":"2026-04-09T07:34:14.929248","MEAN_MOTION":15.17885226,"ECCENTRICITY":0.00303891,"INCLINATION":43.0136,"RA_OF_ASC_NODE":206.3533,"ARG_OF_PERICENTER":67.3992,"MEAN_ANOMALY":293.0066,"EPHEMERIS_TYPE":0,"CLASSIFICATION_TYPE":"U","NORAD_CAT_ID":42758,"ELEMENT_SET_NO":999,"REV_AT_EPOCH":48719,"BSTAR":0.00027004984,"MEAN_MOTION_DOT":5.397e-5,"MEAN_MOTION_DDOT":0},{"OBJECT_NAME":"SAOCOM 1A","OBJECT_ID":"2018-076A","EPOCH":"2026-04-09T06:36:20.361024","MEAN_MOTION":14.82196719,"ECCENTRICITY":0.00014449,"INCLINATION":97.8906,"RA_OF_ASC_NODE":287.016,"ARG_OF_PERICENTER":78.8107,"MEAN_ANOMALY":281.3268,"EPHEMERIS_TYPE":0,"CLASSIFICATION_TYPE":"U","NORAD_CAT_ID":43641,"ELEMENT_SET_NO":999,"REV_AT_EPOCH":40589,"BSTAR":4.8001387e-5,"MEAN_MOTION_DOT":3.3e-6,"MEAN_MOTION_DDOT":0},{"OBJECT_NAME":"H-2A R/B","OBJECT_ID":"2018-084L","EPOCH":"2026-04-09T02:26:32.297280","MEAN_MOTION":15.42719293,"ECCENTRICITY":0.00231399,"INCLINATION":98.8683,"RA_OF_ASC_NODE":323.0157,"ARG_OF_PERICENTER":277.5925,"MEAN_ANOMALY":82.269,"EPHEMERIS_TYPE":0,"CLASSIFICATION_TYPE":"U","NORAD_CAT_ID":43682,"ELEMENT_SET_NO":999,"REV_AT_EPOCH":41046,"BSTAR":0.00036343096,"MEAN_MOTION_DOT":0.00015919,"MEAN_MOTION_DDOT":0},{"OBJECT_NAME":"SAOCOM 1B","OBJECT_ID":"2020-059A","EPOCH":"2026-04-09T07:21:24.128064","MEAN_MOTION":14.82155015,"ECCENTRICITY":0.00014696,"INCLINATION":97.8894,"RA_OF_ASC_NODE":286.1425,"ARG_OF_PERICENTER":83.3269,"MEAN_ANOMALY":276.8112,"EPHEMERIS_TYPE":0,"CLASSIFICATION_TYPE":"U","NORAD_CAT_ID":46265,"ELEMENT_SET_NO":999,"REV_AT_EPOCH":30328,"BSTAR":5.088962e-6,"MEAN_MOTION_DOT":-1.2e-7,"MEAN_MOTION_DDOT":0},{"OBJECT_NAME":"CSS (TIANHE)","OBJECT_ID":"2021-035A","EPOCH":"2026-04-09T05:23:22.348608","MEAN_MOTION":15.62157003,"ECCENTRICITY":0.00043254,"INCLINATION":41.4682,"RA_OF_ASC_NODE":22.1549,"ARG_OF_PERICENTER":166.9718,"MEAN_ANOMALY":193.1234,"EPHEMERIS_TYPE":0,"CLASSIFICATION_TYPE":"U","NORAD_CAT_ID":48274,"ELEMENT_SET_NO":999,"REV_AT_EPOCH":28238,"BSTAR":0.00025895542,"MEAN_MOTION_DOT":0.0002314,"MEAN_MOTION_DDOT":0},{"OBJECT_NAME":"COSMOS 2550","OBJECT_ID":"2021-056A","EPOCH":"2026-04-06T21:10:58.215072","MEAN_MOTION":15.33838997,"ECCENTRICITY":0.00082712,"INCLINATION":67.1413,"RA_OF_ASC_NODE":315.6012,"ARG_OF_PERICENTER":269.8278,"MEAN_ANOMALY":90.1929,"EPHEMERIS_TYPE":0,"CLASSIFICATION_TYPE":"U","NORAD_CAT_ID":48865,"ELEMENT_SET_NO":999,"REV_AT_EPOCH":26778,"BSTAR":2.95211e-7,"MEAN_MOTION_DOT":-1.82e-6,"MEAN_MOTION_DDOT":0},{"OBJECT_NAME":"CZ-2C R/B","OBJECT_ID":"2022-058K","EPOCH":"2026-04-09T06:50:47.860224","MEAN_MOTION":15.56671979,"ECCENTRICITY":0.00407963,"INCLINATION":50.1866,"RA_OF_ASC_NODE":160.6263,"ARG_OF_PERICENTER":332.0174,"MEAN_ANOMALY":27.8604,"EPHEMERIS_TYPE":0,"CLASSIFICATION_TYPE":"U","NORAD_CAT_ID":52794,"ELEMENT_SET_NO":999,"REV_AT_EPOCH":21489,"BSTAR":0.00042281364,"MEAN_MOTION_DOT":0.00031576,"MEAN_MOTION_DDOT":0},{"OBJECT_NAME":"CZ-2C R/B","OBJECT_ID":"2022-132E","EPOCH":"2026-04-08T23:14:43.444032","MEAN_MOTION":15.64896273,"ECCENTRICITY":0.0014754,"INCLINATION":97.2953,"RA_OF_ASC_NODE":103.2717,"ARG_OF_PERICENTER":346.6891,"MEAN_ANOMALY":13.3978,"EPHEMERIS_TYPE":0,"CLASSIFICATION_TYPE":"U","NORAD_CAT_ID":54039,"ELEMENT_SET_NO":999,"REV_AT_EPOCH":19510,"BSTAR":0.00044167183,"MEAN_MOTION_DOT":0.000434,"MEAN_MOTION_DDOT":0},{"OBJECT_NAME":"GSLV R/B","OBJECT_ID":"2022-138AN","EPOCH":"2026-04-09T04:55:02.420832","MEAN_MOTION":14.9697136,"ECCENTRICITY":0.00231426,"INCLINATION":87.384,"RA_OF_ASC_NODE":156.1433,"ARG_OF_PERICENTER":46.2068,"MEAN_ANOMALY":314.1073,"EPHEMERIS_TYPE":0,"CLASSIFICATION_TYPE":"U","NORAD_CAT_ID":54149,"ELEMENT_SET_NO":999,"REV_AT_EPOCH":18849,"BSTAR":0.00016480269,"MEAN_MOTION_DOT":1.933e-5,"MEAN_MOTION_DDOT":0},{"OBJECT_NAME":"XRISM","OBJECT_ID":"2023-137A","EPOCH":"2026-04-09T06:40:32.532384","MEAN_MOTION":15.1187366,"ECCENTRICITY":0.00076645,"INCLINATION":31.002,"RA_OF_ASC_NODE":85.7576,"ARG_OF_PERICENTER":345.8565,"MEAN_ANOMALY":14.1858,"EPHEMERIS_TYPE":0,"CLASSIFICATION_TYPE":"U","NORAD_CAT_ID":57800,"ELEMENT_SET_NO":999,"REV_AT_EPOCH":14242,"BSTAR":0.00027152381,"MEAN_MOTION_DOT":4.861e-5,"MEAN_MOTION_DDOT":0},{"OBJECT_NAME":"ACS3","OBJECT_ID":"2024-077B","EPOCH":"2026-04-09T07:11:07.810944","MEAN_MOTION":13.91092972,"ECCENTRICITY":0.00732005,"INCLINATION":97.1915,"RA_OF_ASC_NODE":33.5354,"ARG_OF_PERICENTER":9.5413,"MEAN_ANOMALY":350.7123,"EPHEMERIS_TYPE":0,"CLASSIFICATION_TYPE":"U","NORAD_CAT_ID":59588,"ELEMENT_SET_NO":999,"REV_AT_EPOCH":9845,"BSTAR":0.014703488,"MEAN_MOTION_DOT":0.00018895,"MEAN_MOTION_DDOT":0},{"OBJECT_NAME":"HTV-X1","OBJECT_ID":"2025-241A","EPOCH":"2026-04-09T07:11:11.943456","MEAN_MOTION":15.32591603,"ECCENTRICITY":0.00073587,"INCLINATION":51.6369,"RA_OF_ASC_NODE":285.4897,"ARG_OF_PERICENTER":291.7965,"MEAN_ANOMALY":68.2233,"EPHEMERIS_TYPE":0,"CLASSIFICATION_TYPE":"U","NORAD_CAT_ID":66174,"ELEMENT_SET_NO":999,"REV_AT_EPOCH":2563,"BSTAR":0.00013980953,"MEAN_MOTION_DOT":4.098e-5,"MEAN_MOTION_DDOT":0},{"OBJECT_NAME":"SZ-21 MODULE","OBJECT_ID":"2025-246C","EPOCH":"2026-04-09T02:26:41.631936","MEAN_MOTION":15.71099635,"ECCENTRICITY":0.00039544,"INCLINATION":41.4751,"RA_OF_ASC_NODE":15.807,"ARG_OF_PERICENTER":247.3606,"MEAN_ANOMALY":112.6819,"EPHEMERIS_TYPE":0,"CLASSIFICATION_TYPE":"U","NORAD_CAT_ID":66515,"ELEMENT_SET_NO":999,"REV_AT_EPOCH":2285,"BSTAR":0.00026861322,"MEAN_MOTION_DOT":0.00034657,"MEAN_MOTION_DDOT":0}]
