HXMT (HUIYAN)           
1 42758U 17034A   26099.31545057  .00005397  00000+0  27005-3 0  9997
2 42758  43.0136 206.3533 0030389  67.3992 293.0066 15.17885226487196
SAOCOM 1A               
1 43641U 18076A   26099.27523566  .00000330  00000+0  48001-4 0  9994
2 43641  97.8906 287.0160 0001444  78.8107 281.3268 14.82196719405891
H-2A R/B                
1 43682U 18084L   26099.10176270  .00015919  00000+0  36343-3 0  9990
2 43682  98.8683 323.0157 0023139 277.5925  82.2690 15.42719293410468
SAOCOM 1B               
1 46265U 20059A   26099.30652926 -.00000012  00000+0  50890-5 0  9998
2 46265  97.8894 286.1425 0001469  83.3269 276.8112 14.82155015303284
CSS (TIANHE)            
1 48274U 21035A   26099.22456422  .00023140  00000+0  25896-3 0  9991
2 48274  41.4682  22.1549 0004325 166.9718 193.1234 15.62157003282383
COSMOS 2550             
1 48865U 21056A   26096.88261823 -.00000182  00000+0  29521-6 0  9992
2 48865  67.1413 315.6012 0008271 269.8278  90.1929 15.33838997267789
CZ-2C R/B               
1 52794U 22058K   26099.28527616  .00031576  00000+0  42281-3 0  9998
2 52794  50.1866 160.6263 0040796 332.0174  27.8604 15.56671979214892
CZ-2C R/B               
1 54039U 22132E   26098.96855838  .00043400  00000+0  44167-3 0  9993
2 54039  97.2953 103.2717 0014754 346.6891  13.3978 15.64896273195105
GSLV R/B                
1 54149U 22138AN  26099.20488913  .00001933  00000+0  16480-3 0  9997
2 54149  87.3840 156.1433 0023142  46.2068 314.1073 14.96971360188491
XRISM                   
1 57800U 23137A   26099.27815431  .00004861  00000+0  27152-3 0  9991
2 57800  31.0020  85.7576 0007664 345.8565  14.1858 15.11873660142423
ACS3                    
1 59588U 24077B   26099.29939596  .00018895  00000+0  14703-1 0  9999
2 59588  97.1915  33.5354 0073200   9.5413 350.7123 13.91092972 98456
HTV-X1                  
1 66174U 25241A   26099.29944379  .00004098  00000+0  13981-3 0  9996
2 66174  51.6369 285.4897 0007358 291.7965  68.2233 15.32591603 25636
SZ-21 MODULE            
1 66515U 25246C   26099.10187074  .00034657  00000+0  26861-3 0  9996
2 66515  41.4751  15.8070 0003954 247.3606 112.6819 15.71099635 22858
